[{"OBJECT_NAME":"STARLINK-5845","OBJECT_ID":"2023-088C","EPOCH":"2026-03-09T19:07:01.247808","MEAN_MOTION":15.02534824,"ECCENTRICITY":0.0001343,"INCLINATION":43.0052,"RA_OF_ASC_NODE":107.0828,"ARG_OF_PERICENTER":268.4424,"MEAN_ANOMALY":91.6264,"EPHEMERIS_TYPE":0,"CLASSIFICATION_TYPE":"U","NORAD_CAT_ID":57050,"ELEMENT_SET_NO":999,"REV_AT_EPOCH":15038,"BSTAR":1.9932039e-5,"MEAN_MOTION_DOT":6.6e-7,"MEAN_MOTION_DDOT":0},{"OBJECT_NAME":"CZ-6A DEB","OBJECT_ID":"2024-140YJ","EPOCH":"2026-03-09T12:57:52.080768","MEAN_MOTION":14.93904112,"ECCENTRICITY":0.01017322,"INCLINATION":88.9655,"RA_OF_ASC_NODE":277.0683,"ARG_OF_PERICENTER":120.9079,"MEAN_ANOMALY":240.2204,"EPHEMERIS_TYPE":0,"CLASSIFICATION_TYPE":"U","NORAD_CAT_ID":61417,"ELEMENT_SET_NO":999,"REV_AT_EPOCH":8080,"BSTAR":0.0018816098,"MEAN_MOTION_DOT":0.00022222,"MEAN_MOTION_DDOT":0}]
